[
    {
        "Altitude(m)": 605459.0463796149,
        "Argument of Periapsis(deg)": 0.0,
        "Eccentricity": 0.0,
        "Inclination(deg)": 60.0,
        "Latitude(deg)": 27.98827108819,
        "Longitude(deg)": 27.798530349494854,
        "Mean Anomaly(deg)": 32.727299999999985,
        "RAAN(deg)": 110.00000000000001,
        "Satellite Name": "Test1 486",
        "Satellite Number": 486,
        "Semi-Major Axis(m)": 6980739.136638005,
        "Time(s)": 0
    },
    {
        "Altitude(m)": 605535.837809425,
        "Argument of Periapsis(deg)": 0.00010418945913296404,
        "Eccentricity": 0.0,
        "Inclination(deg)": 60.0,
        "Latitude(deg)": 28.501401234984456,
        "Longitude(deg)": 28.155474437497524,
        "Mean Anomaly(deg)": 33.347406145461825,
        "RAAN(deg)": 109.99957995086025,
        "Satellite Name": "Test1 486",
        "Satellite Number": 486,
        "Semi-Major Axis(m)": 6980739.136638005,
        "Time(s)": 10
    }
]